[{"OBJECT_NAME":"TISAT 1","OBJECT_ID":"2010-035E","EPOCH":"2026-03-09T18:10:07.877568","MEAN_MOTION":15.27628633,"ECCENTRICITY":0.00013432,"INCLINATION":98.0645,"RA_OF_ASC_NODE":6.8512,"ARG_OF_PERICENTER":159.303,"MEAN_ANOMALY":200.8262,"EPHEMERIS_TYPE":0,"CLASSIFICATION_TYPE":"U","NORAD_CAT_ID":36799,"ELEMENT_SET_NO":999,"REV_AT_EPOCH":85250,"BSTAR":0.00091004793,"MEAN_MOTION_DOT":0.00024554,"MEAN_MOTION_DDOT":0},{"OBJECT_NAME":"STARLINK-31964","OBJECT_ID":"2024-100L","EPOCH":"2026-03-09T12:17:07.810944","MEAN_MOTION":15.27573524,"ECCENTRICITY":7.714e-5,"INCLINATION":42.9965,"RA_OF_ASC_NODE":126.056,"ARG_OF_PERICENTER":288.8537,"MEAN_ANOMALY":71.2231,"EPHEMERIS_TYPE":0,"CLASSIFICATION_TYPE":"U","NORAD_CAT_ID":59895,"ELEMENT_SET_NO":999,"REV_AT_EPOCH":10108,"BSTAR":-5.820817e-5,"MEAN_MOTION_DOT":-1.863e-5,"MEAN_MOTION_DDOT":0}]
