TISAT 1                 
1 36799U 10035E   26068.75703561  .00024554  00000+0  91005-3 0  9996
2 36799  98.0645   6.8512 0001343 159.3030 200.8262 15.27628633852505
STARLINK-31964          
1 59895U 24100L   26068.51189596 -.00001863  00000+0 -58208-4 0  9995
2 59895  42.9965 126.0560 0000771 288.8537  71.2231 15.27573524101086
